KKS-1 (KISEKI)          
1 33499U 09002H   26167.31207149  .00001157  00000+0  14878-3 0  9992
2 33499  98.1190  89.7405 0006584 299.3128  60.7427 14.83122279936067
SWISSCUBE               
1 35932U 09051B   26167.27923453  .00000836  00000+0  17480-3 0  9993
2 35932  98.4037  75.1516 0005898 206.1840 153.9064 14.62480239889025
BEESAT-1                
1 35933U 09051C   26167.28819711  .00000696  00000+0  14946-3 0  9994
2 35933  98.3965  74.7982 0004172 220.4264 139.6627 14.61719271889059
ITUPSAT1                
1 35935U 09051E   26167.27829992  .00000645  00000+0  14315-3 0  9991
2 35935  98.4049  73.9810 0006227 237.3413 122.7187 14.60439597888605
XIWANG-1 (HOPE-1)       
1 36122U 09072B   26167.25589375 -.00000314  00000+0 -70650-3 0  9998
2 36122 100.4025 121.1031 0006858 234.0890 125.9587 13.16437719792883
O/OREOS (USA 219)       
1 37224U 10062C   26167.19160790  .00001939  00000+0  18866-3 0  9995
2 37224  71.9714  82.5947 0012532  65.2237 295.0236 14.93741110116491
JUGNU                   
1 37839U 11058B   26167.11854749  .00000400  00000+0  69482-4 0  9992
2 37839  19.9617 314.9218 0018636  64.4642 109.1077 14.13776503758870
SRMSAT                  
1 37841U 11058D   26167.08586324  .00000355  00000+0  48745-4 0  9990
2 37841  19.9722  66.1331 0011815 191.4739 210.8496 14.11575350757668
STRAND-1                
1 39090U 13009E   26167.22054666  .00000219  00000+0  88132-4 0  9994
2 39090  98.3921 347.4787 0007680 228.5958 131.4569 14.37162791696927
ZACUBE-1 (TSHEPISOSAT)  
1 39417U 13066B   26167.14083163  .00002688  00000+0  21090-3 0  9996
2 39417  97.8082 129.4722 0040689 251.3313 108.3491 15.01184047680575
GOMX-1                  
1 39430U 13066Q   26167.30075272  .00001511  00000+0  23141-3 0  9994
2 39430  97.6477   7.8198 0130178  80.3496 281.2389 14.69457255669781
CUBEBUG-2 (LO-74)       
1 39440U 13066AA  26167.12537931  .00003994  00000+0  37024-3 0  9992
2 39440  97.8908 116.0990 0058456  32.4816 327.9979 14.93754109676830
FUNCUBE-1 (AO-73)       
1 39444U 13066AE  26167.19478169  .00005705  00000+0  35517-3 0  9997
2 39444  97.8274 138.6199 0035559 204.3953 155.5593 15.09480360679510
UWE-3                   
1 39446U 13066AG  26166.41095872  .00003615  00000+0  31229-3 0  9993
2 39446  97.8693 122.4726 0047855 327.0614  32.7628 14.97011844677317
UNISAT-6                
1 40012U 14033C   26167.32647924  .00002250  00000+0  24492-3 0  9999
2 40012  97.7877 320.0533 0046277  72.0524 288.5730 14.88242939646038
DUCHIFAT-1              
1 40021U 14033M   26166.42257015  .00087303  00000+0  90897-3 0  9991
2 40021  98.0462 225.3358 0003280 119.3803 240.7782 15.64281009655477
QB50P1                  
1 40025U 14033R   26167.29329031  .00006542  00000+0  32293-3 0  9991
2 40025  98.0960 178.3767 0007718 218.6881 141.3799 15.18249784652894
LILACSAT-2              
1 40908U 15049K   26167.30477911  .00014150  00000+0  24158-3 0  9997
2 40908  97.4642 204.1128 0005460 249.1655 110.9012 15.51420206595616
FOX-1A (AO-85)          
1 40967U 15058D   26166.74276637  .00002067  00000+0  19289-3 0  9994
2 40967  64.7762 283.4725 0130368  57.1508 304.2075 14.90963979113359
CAS-2T & KS-1Q          
1 41847U 16066G   26167.20170864  .00001550  00000+0  22417-3 0  9992
2 41847  98.3821 242.9493 0342753 132.4604 230.6111 14.44691734504651
RADFXSAT (FOX-1B)       
1 43017U 17073E   26167.14963034  .00006534  00000+0  28659-3 0  9995
2 43017  97.4703  34.3858 0149692 332.8831  26.4636 15.12705652465238
DIWATA-2B               
1 43678U 18084H   26167.30293372  .00001897  00000+0  15583-3 0  9999
2 43678  98.1175   3.4727 0012428 172.9474 187.1925 15.00447809416085
ES'HAIL 2               
1 43700U 18090A   26167.11962374  .00000144  00000+0  00000+0 0  9994
2 43700   0.0173   5.4784 0001593 118.9306 208.8329  1.00270088 27660
FOX-1CLIFF (AO-95)      
1 43770U 18099N   26167.16008802  .00008871  00000+0  34028-3 0  9998
2 43770  97.4381 227.4098 0008085   1.8957 358.2311 15.26694491413062
ITASAT                  
1 43786U 18099AE  26167.09945745  .00005979  00000+0  28803-3 0  9993
2 43786  97.4027 218.6326 0012212   4.0961 356.0371 15.19046010412745
JY1SAT (JO-97)          
1 43803U 18099AX  26167.11705126  .00014353  00000+0  44350-3 0  9994
2 43803  97.4130 229.9474 0004293 267.4350  92.6401 15.33625681413466
UWE-4                   
1 43880U 18111E   26167.05014457  .00026306  00000+0  53861-3 0  9995
2 43880  97.5856  95.3888 0005718 347.9262  12.1848 15.46065532410602
TIANYAN 01              
1 44881U 19093C   26167.23699984  .00001296  00000+0  15222-3 0  9991
2 44881  97.7539 239.4921 0015129  89.7707 270.5243 14.86520887351273
RS-44 & BREEZE-KM R/B   
1 44909U 19096E   26167.22337952  .00000013  00000+0  28023-5 0  9999
2 44909  82.5218 340.3455 0218124 146.4115 215.1037 12.79748866302224
SALSAT                  
1 46495U 20068K   26166.96813813  .00006820  00000+0  23912-3 0  9999
2 46495  97.8844 169.9584 0008114 313.3675  46.6887 15.29785416315178
XW-3 (CAS-9)            
1 50466U 21131B   26167.29100005  .00000460  00000+0  15581-3 0  9990
2 50466  98.4987 259.6853 0005370  98.8882 261.2915 14.41357076234984
GREENCUBE (IO-117)      
1 53109U 22080E   26164.29338770 -.00000003  00000+0  00000+0 0  9990
2 53109  70.1444 299.5995 0008910 290.4576  69.5127  6.42583230 91811
UMKA 1 (RS40S)          
1 57172U 23091G   26167.30436376  .00005728  00000+0  26223-3 0  9990
2 57172  97.5050 226.0049 0014224 120.4106 239.8537 15.20810830163870
CUBESX-HSE 3 (RS42S)    
1 57178U 23091N   26167.25894190  .00011640  00000+0  38789-3 0  9992
2 57178  97.5094 232.8343 0012045  97.6606 262.6004 15.31196382164285
MONITOR-3 (RS58S)       
1 57180U 23091Q   26167.28138393  .00008942  00000+0  33101-3 0  9998
2 57180  97.5085 230.7206 0013116 103.6582 256.6118 15.27827556164158
MONITOR-4 (RS57S)       
1 57182U 23091S   26167.19500099  .00009076  00000+0  33505-3 0  9993
2 57182  97.5079 230.6048 0013109 104.2135 256.0562 15.27910857164142
MONITOR-2 (RS39S)       
1 57184U 23091U   26167.25863046  .00004318  00000+0  20982-3 0  9995
2 57184  97.5073 225.5475 0012712 113.8567 246.4001 15.18903550163815
SVYATOBOR 1 (RS60S)     
1 57187U 23091X   26167.27278907  .00007649  00000+0  29446-3 0  9990
2 57187  97.5091 231.0847 0010884  97.0602 263.1875 15.26602729164172
VIZARD-METEO (RS38S)    
1 57189U 23091Z   26167.30072381  .00013783  00000+0  39487-3 0  9996
2 57189  97.5094 236.7677 0008319  80.4667 279.7516 15.36003143164550
POLYTECH-UNIVERSE 3 (R*)
1 57191U 23091AB  26167.28595534  .00004340  00000+0  20937-3 0  9995
2 57191  97.5048 225.0792 0016804 129.6852 230.5867 15.19106444163812
UTMN 2 (RS27S)          
1 57203U 23091AP  26167.14640589  .00011422  00000+0  37127-3 0  9993
2 57203  97.5090 234.3528 0009310  86.9005 273.3302 15.32031789164388
KUZGTU 1 (RS47S)        
1 57217U 23091AV  26167.24921569  .00010544  00000+0  36655-3 0  9998
2 57217  97.5066 231.7196 0012335 100.8863 259.3766 15.29845700164231
SONATE-2                
1 59112U 24043Q   26166.66172283  .00034167  00000+0  44548-3 0  9995
2 59112  97.5531 316.9638 0007014 200.7175 159.3797 15.58618776127656
MESAT1                  
1 60209U 24125G   26167.14602184  .00048436  00000+0  53014-3 0  9999
2 60209  97.2286  24.6049 0009433 207.5378 152.5383 15.63102289109407
OOV-CUBE (TUBSAT-30)    
1 60240U 24128F   26167.32354354  .00001579  00000+0  13083-3 0  9999
2 60240  61.9943 228.5853 0044694 133.5156 226.9663 15.02771261105989
COLIBRI-S (RS67S)       
1 61746U 24199M   26167.28597002  .00017802  00000+0  34551-3 0  9992
2 61746  97.2992  41.1322 0006262 283.4426  76.6126 15.47694231137272
HORS 3 (RS81S)          
1 61753U 24199U   26167.25289437  .00031389  00000+0  46986-3 0  9998
2 61753  97.2976  43.0753 0003722 283.7544  76.3296 15.54918267137410
HORS 4 (RS82S)          
1 61754U 24199V   26167.28045643  .00039379  00000+0  49449-3 0  9995
2 61754  97.2922  44.2991 0003051 264.4799  95.6110 15.59610687137501
SIT-2086                
1 61764U 24199AF  26167.29443499  .00030499  00000+0  48878-3 0  9997
2 61764  97.2933  43.5973 0004489 254.5378 105.5380 15.53034494134298
HYPERVIEW 1G (RS66S)    
1 61772U 24199AP  26167.30054371  .00122910  00000+0  79732-3 0  9998
2 61772  97.2868  46.9754 0003565 223.1722 136.9264 15.75636831134530
ALTAIR (RS65S)          
1 61779U 24199AW  26167.26565707  .00007021  00000+0  19580-3 0  9990
2 61779  97.3027  36.6228 0011197 315.0442  44.9895 15.37010974136977
ASRTU-1 (AO-123)        
1 61781U 24199AY  26167.25275125  .00006263  00000+0  18251-3 0  9995
2 61781  97.2997  35.9322 0012385 317.9891  42.0402 15.35664562133786
SAMSAT-IONOSPHERE (RS7*)
1 61784U 24199BB  26167.28848801  .00037423  00000+0  50745-3 0  9994
2 61784  97.2944  43.1550 0005847 281.1594  78.9004 15.57557479137425
RTU MIREA 1 (RS51S)     
1 61785U 24199BC  26167.25078574  .00047386  00000+0  56340-3 0  9990
2 61785  97.2932  43.9433 0005497 273.1517  86.9112 15.60997873134323
TEVEL2-4                
1 63213U 25052D   26167.26931493  .00015325  00000+0  45918-3 0  9993
2 63213  97.3909  63.6594 0004838 105.2183 254.9595 15.34584651 69972
TEVEL2-5                
1 63214U 25052E   26167.22449878  .00014846  00000+0  44740-3 0  9990
2 63214  97.3905  63.5630 0004772 106.2124 253.9644 15.34410559 69960
TEVEL2-6                
1 63215U 25052F   26167.17159245  .00015102  00000+0  45558-3 0  9995
2 63215  97.3912  63.4942 0004675 107.3196 252.8558 15.34373601 69954
TEVEL2-1                
1 63217U 25052H   26167.26550395  .00014362  00000+0  44072-3 0  9995
2 63217  97.3881  63.2139 0004726 115.4259 244.7474 15.33842232 69951
TEVEL2-3                
1 63218U 25052J   26167.26018018  .00014748  00000+0  45169-3 0  9993
2 63218  97.3885  63.2303 0004686 115.4996 244.6732 15.33897965 69951
